ADDRESS,FIRST APPROACH,SECOND APPROACH,GO-LIVE DATE,LATITUDE,LONGITUDE,LOCATION,Historical Wards 2003-2015,Zip Codes,Community Areas,Census Tracts,Wards
11 E Chicago Ave (Speed Camera),WB,,04/29/2014,41.896652,-87.627837,"{'latitude': '41.896652', 'human_address': '{""address"": """", ""city"": """", ""state"": """", ""zip"": """"}', 'longitude': '-87.627837'}",22,21182,37,626,36
6125 N Cicero Ave (Speed Camera),NB,SB,03/17/2014,41.9921194114274,-87.74847678515228,"{'latitude': '41.9921194114274', 'human_address': '{""address"": """", ""city"": """", ""state"": """", ""zip"": """"}', 'longitude': '-87.74847678515228'}",28,22532,12,782,38
5454 W Irving Park (Speed Camera),EB,WB,11/10/2013,41.95332954454448,-87.76426726425451,"{'latitude': '41.95332954454448', 'human_address': '{""address"": """", ""city"": """", ""state"": """", ""zip"": """"}', 'longitude': '-87.76426726425451'}",25,22618,15,260,19
3534 N Western (Speed Camera),SB,,01/31/2014,41.9459625867886,-87.68838396394528,"{'latitude': '41.9459625867886', 'human_address': '{""address"": """", ""city"": """", ""state"": """", ""zip"": """"}', 'longitude': '-87.68838396394528'}",13,21538,46,110,18
8345 S Ashland Ave (Speed Camera),NB,,10/11/2014,41.741741651401504,-87.66307332925098,"{'latitude': '41.741741651401504', 'human_address': '{""address"": """", ""city"": """", ""state"": """", ""zip"": """"}', 'longitude': '-87.66307332925098'}",18,21554,70,531,13
7122 S South Chicago Ave (Speed Camera),SEB,,08/20/2018,41.765164,-87.604804,"{'latitude': '41.765164', 'human_address': '{""address"": """", ""city"": """", ""state"": """", ""zip"": """"}', 'longitude': '-87.604804'}",32,21546,67,121,33
732 N Pulaski Rd (Speed Camera),NB,SB,03/24/2014,41.89450330881178,-87.72620452246953,"{'latitude': '41.89450330881178', 'human_address': '{""address"": """", ""city"": """", ""state"": """", ""zip"": """"}', 'longitude': '-87.72620452246953'}",11,21572,24,99,45
4042 W Roosevelt Rd (Speed Camera),EB,WB,09/09/2014,41.866257378192785,-87.72687882014701,"{'latitude': '41.866257378192785', 'human_address': '{""address"": """", ""city"": """", ""state"": """", ""zip"": """"}', 'longitude': '-87.72687882014701'}",36,21572,30,98,14
7739 S Western (Speed Camera),NB,,12/18/2013,41.752629293489285,-87.68276525603093,"{'latitude': '41.752629293489285', 'human_address': '{""address"": """", ""city"": """", ""state"": """", ""zip"": """"}', 'longitude': '-87.68276525603093'}",6,21554,69,498,30
8318 S Ashland Ave (Speed Camera),SB,,10/11/2014,41.74247385456547,-87.66338547998558,"{'latitude': '41.74247385456547', 'human_address': '{""address"": """", ""city"": """", ""state"": """", ""zip"": """"}', 'longitude': '-87.66338547998558'}",6,21554,70,532,13
2900 W Ogden Ave (Speed Camera),EB,WB,10/17/2013,41.86040786445197,-87.69867209877323,"{'latitude': '41.86040786445197', 'human_address': '{""address"": """", ""city"": """", ""state"": """", ""zip"": """"}', 'longitude': '-87.69867209877323'}",36,21569,30,132,14
1638 N Ashland (Speed Camera),SB,,03/03/2014,41.91179204452259,-87.66787045896686,"{'latitude': '41.91179204452259', 'human_address': '{""address"": """", ""city"": """", ""state"": """", ""zip"": """"}', 'longitude': '-87.66787045896686'}",24,21560,25,437,40
2417 W 103rd St (Speed Camera),EB,,10/17/2014,41.70626766073214,-87.68239147238012,"{'latitude': '41.70626766073214', 'human_address': '{""address"": """", ""city"": """", ""state"": """", ""zip"": """"}', 'longitude': '-87.68239147238012'}",33,4447,71,553,42
5433 S Pulaski (Speed Camera),NB,,02/07/2014,41.79404504596532,-87.72303636259336,"{'latitude': '41.79404504596532', 'human_address': '{""address"": """", ""city"": """", ""state"": """", ""zip"": """"}', 'longitude': '-87.72303636259336'}",35,22248,60,792,6
3034 W Foster Ave (Speed Camera),EB,WB,10/05/2013,41.9758840401294,-87.70480112338926,"{'latitude': '41.9758840401294', 'human_address': '{""address"": """", ""city"": """", ""state"": """", ""zip"": """"}', 'longitude': '-87.70480112338926'}",46,21849,13,167,24
5739 N Northwest Hwy (Speed Camera),NB,SB,09/09/2014,41.98611938850496,-87.7877408267013,"{'latitude': '41.98611938850496', 'human_address': '{""address"": """", ""city"": """", ""state"": """", ""zip"": """"}', 'longitude': '-87.7877408267013'}",34,22243,36,657,29
3809 W Belmont ave  (Speed Camera),EB,,04/08/2014,41.939040255975605,-87.72264591078833,"{'latitude': '41.939040255975605', 'human_address': '{""address"": """", ""city"": """", ""state"": """", ""zip"": """"}', 'longitude': '-87.72264591078833'}",27,21538,22,215,21
4433 N Western (Speed Camera),NB,,01/04/2014,41.96231378868856,-87.68856455418805,"{'latitude': '41.96231378868856', 'human_address': '{""address"": """", ""city"": """", ""state"": """", ""zip"": """"}', 'longitude': '-87.68856455418805'}",13,21849,6,667,18
4429 N Broadway (Speed Camera),,NB,11/23/2013,41.962596548691735,-87.65551767517252,"{'latitude': '41.962596548691735', 'human_address': '{""address"": """", ""city"": """", ""state"": """", ""zip"": """"}', 'longitude': '-87.65551767517252'}",37,22616,31,241,39
536 E Morgan Dr (Speed Camera),EB,WB,12/06/2013,41.793492645896656,-87.6118759701359,"{'latitude': '41.793492645896656', 'human_address': '{""address"": """", ""city"": """", ""state"": """", ""zip"": """"}', 'longitude': '-87.6118759701359'}",53,22260,7,401,4
324 E Illinois St (Speed Camera),EB,,04/14/2014,41.89091009572781,-87.61934752145963,"{'latitude': '41.89091009572781', 'human_address': '{""address"": """", ""city"": """", ""state"": """", ""zip"": """"}', 'longitude': '-87.61934752145963'}",22,21182,37,159,36
2329 Division (Speed Camera),EB,WB,02/24/2014,41.90292940885378,-87.68576187971952,"{'latitude': '41.90292940885378', 'human_address': '{""address"": """", ""city"": """", ""state"": """", ""zip"": """"}', 'longitude': '-87.68576187971952'}",24,21560,25,541,41
7518 S Vincennes (Speed Camera),NB,SB,02/17/2014,41.75749703994495,-87.63183332832696,"{'latitude': '41.75749703994495', 'human_address': '{""address"": """", ""city"": """", ""state"": """", ""zip"": """"}', 'longitude': '-87.63183332832696'}",17,21554,67,495,32
7738 S Western (Speed Camera),SB,,12/18/2013,41.75271909284453,-87.68306095859297,"{'latitude': '41.75271909284453', 'human_address': '{""address"": """", ""city"": """", ""state"": """", ""zip"": """"}', 'longitude': '-87.68306095859297'}",6,4300,69,498,30
4436 N Western (Speed Camera),SB,,01/04/2014,41.9624218495406,-87.68886227502836,"{'latitude': '41.9624218495406', 'human_address': '{""address"": """", ""city"": """", ""state"": """", ""zip"": """"}', 'longitude': '-87.68886227502836'}",13,21849,6,621,18
5030 S Pulaski (Speed Camera),SB,,01/31/2014,41.80140191299459,-87.72354459803559,"{'latitude': '41.80140191299459', 'human_address': '{""address"": """", ""city"": """", ""state"": """", ""zip"": """"}', 'longitude': '-87.72354459803559'}",49,22248,54,697,8
5432 W Lawrence (Speed Camera),EB,WB,02/14/2014,41.96785573012919,-87.76392864369929,"{'latitude': '41.96785573012919', 'human_address': '{""address"": """", ""city"": """", ""state"": """", ""zip"": """"}', 'longitude': '-87.76392864369929'}",20,21869,11,129,50
5440 W Grand (Speed Camera),EB,WB,12/12/2013,41.91823126606235,-87.7623370579504,"{'latitude': '41.91823126606235', 'human_address': '{""address"": """", ""city"": """", ""state"": """", ""zip"": """"}', 'longitude': '-87.7623370579504'}",4,22615,19,307,44
1334 W Garfield Blvd (Speed Camera),WB,,03/24/2014,41.79422646635146,-87.65870999891658,"{'latitude': '41.79422646635146', 'human_address': '{""address"": """", ""city"": """", ""state"": """", ""zip"": """"}', 'longitude': '-87.65870999891658'}",19,14924,59,790,4
215 E 63rd St (Speed Camera),EB,WB,09/24/2014,41.78005698693417,-87.6197547203603,"{'latitude': '41.78005698693417', 'human_address': '{""address"": """", ""city"": """", ""state"": """", ""zip"": """"}', 'longitude': '-87.6197547203603'}",53,22260,67,122,4
5509 W Fullerton (Speed Camera),EB,,12/12/2013,41.92389747217995,-87.76390557836874,"{'latitude': '41.92389747217995', 'human_address': '{""address"": """", ""city"": """", ""state"": """", ""zip"": """"}', 'longitude': '-87.76390557836874'}",4,22615,19,307,44
1754 N Pulaski Rd (Speed Camera),SB,NB,11/09/2015,41.91337483050126,-87.72658859994081,"{'latitude': '41.91337483050126', 'human_address': '{""address"": """", ""city"": """", ""state"": """", ""zip"": """"}', 'longitude': '-87.72658859994081'}",27,22615,24,285,49
5816 W Jackson (Speed Camera),EB,WB,11/06/2013,41.87718940463045,-87.7703695017756,"{'latitude': '41.87718940463045', 'human_address': '{""address"": """", ""city"": """", ""state"": """", ""zip"": """"}', 'longitude': '-87.7703695017756'}",52,22216,26,67,7
5330 Cottage Grove (Speed Camera),NB,SB,10/05/2013,41.79770388561477,-87.60644477865196,"{'latitude': '41.79770388561477', 'human_address': '{""address"": """", ""city"": """", ""state"": """", ""zip"": """"}', 'longitude': '-87.60644477865196'}",1,22260,7,401,10
5428 S Pulaski (Speed Camera),SB,,02/07/2014,41.7941545839503,-87.72333321258739,"{'latitude': '41.7941545839503', 'human_address': '{""address"": """", ""city"": """", ""state"": """", ""zip"": """"}', 'longitude': '-87.72333321258739'}",35,22248,60,793,6
2443 N Ashland (Speed Camera),SB,,01/25/2014,41.926418831263994,-87.66804246498943,"{'latitude': '41.926418831263994', 'human_address': '{""address"": """", ""city"": """", ""state"": """", ""zip"": """"}', 'longitude': '-87.66804246498943'}",16,21190,68,770,40
3047 W Jackson Blvd (Speed Camera),EB,WB,03/17/2014,41.877242773826396,-87.7029526885659,"{'latitude': '41.877242773826396', 'human_address': '{""address"": """", ""city"": """", ""state"": """", ""zip"": """"}', 'longitude': '-87.7029526885659'}",11,21184,28,737,23
2917 W Roosevelt (Speed Camera),EB,,10/05/2013,41.866364024167034,-87.69914296647906,"{'latitude': '41.866364024167034', 'human_address': '{""address"": """", ""city"": """", ""state"": """", ""zip"": """"}', 'longitude': '-87.69914296647906'}",36,21569,30,132,14
4929 S Pulaski (Speed Camera),NB,,01/31/2014,41.80326489471,-87.72330350914287,"{'latitude': '41.80326489471', 'human_address': '{""address"": """", ""city"": """", ""state"": """", ""zip"": """"}', 'longitude': '-87.72330350914287'}",49,22248,54,698,8
3843 W 111th (Speed Camera),EB,WB,01/13/2014,41.69120239624487,-87.71721139909997,"{'latitude': '41.69120239624487', 'human_address': '{""address"": """", ""city"": """", ""state"": """", ""zip"": """"}', 'longitude': '-87.71721139909997'}",33,4447,73,264,42
7157 S South Chicago Ave (Speed Camera),NWB,,08/20/2018,41.764716,-87.603742,"{'latitude': '41.764716', 'human_address': '{""address"": """", ""city"": """", ""state"": """", ""zip"": """"}', 'longitude': '-87.603742'}",32,21546,67,121,33
3832 W 79th St (Speed Camera),EB,,02/10/2014,41.749715176851936,-87.71959877920995,"{'latitude': '41.749715176851936', 'human_address': '{""address"": """", ""city"": """", ""state"": """", ""zip"": """"}', 'longitude': '-87.71959877920995'}",6,4300,69,571,30
2550 W 79th (Speed Camera),WB,,12/18/2013,41.75021259302275,-87.6874210628529,"{'latitude': '41.75021259302275', 'human_address': '{""address"": """", ""city"": """", ""state"": """", ""zip"": """"}', 'longitude': '-87.6874210628529'}",6,4300,69,498,30
3130 N Ashland Ave (Speed Camera),EB,,09/26/2014,41.93880546751142,-87.66877877931208,"{'latitude': '41.93880546751142', 'human_address': '{""address"": """", ""city"": """", ""state"": """", ""zip"": """"}', 'longitude': '-87.66877877931208'}",16,4449,57,711,40
2721 W Montrose (Speed Camera),EB,WB,11/15/2013,41.96114938287925,-87.69696403378589,"{'latitude': '41.96114938287925', 'human_address': '{""address"": """", ""city"": """", ""state"": """", ""zip"": """"}', 'longitude': '-87.69696403378589'}",2,21538,16,214,20
3655 W Jackson Blvd (Speed Camera),EB,WB,09/10/2013,41.87707082846323,-87.71816831641307,"{'latitude': '41.87707082846323', 'human_address': '{""address"": """", ""city"": """", ""state"": """", ""zip"": """"}', 'longitude': '-87.71816831641307'}",11,21572,28,704,23
6443 W Belmont (Speed Camera),EB,,03/10/2014,41.938181258548575,-87.78765548502582,"{'latitude': '41.938181258548575', 'human_address': '{""address"": """", ""city"": """", ""state"": """", ""zip"": """"}', 'longitude': '-87.78765548502582'}",39,22254,19,137,44
2440 W 51st St (Speed Camera),WB,,02/24/2014,41.80123574797641,-87.68589577919322,"{'latitude': '41.80123574797641', 'human_address': '{""address"": """", ""city"": """", ""state"": """", ""zip"": """"}', 'longitude': '-87.68589577919322'}",49,22248,61,763,8
449 N Columbus Dr (Speed Camera),NB,,05/18/2014,41.89003775504898,-87.62017903427099,"{'latitude': '41.89003775504898', 'human_address': '{""address"": """", ""city"": """", ""state"": """", ""zip"": """"}', 'longitude': '-87.62017903427099'}",22,21182,37,159,36
2335 W Cermak (Speed Camera),EB,,03/03/2014,41.85192952334165,-87.68464766256305,"{'latitude': '41.85192952334165', 'human_address': '{""address"": """", ""city"": """", ""state"": """", ""zip"": """"}', 'longitude': '-87.68464766256305'}",8,14920,33,204,26
3230 N Milwaukee Ave (Speed Camera),NB,SB,04/08/2014,41.93969900713657,-87.72507433916897,"{'latitude': '41.93969900713657', 'human_address': '{""address"": """", ""city"": """", ""state"": """", ""zip"": """"}', 'longitude': '-87.72507433916897'}",7,21538,22,138,21
115 N Ogden (Speed Camera),NB,SB,01/25/2014,41.883191521391076,-87.66411469955516,"{'latitude': '41.883191521391076', 'human_address': '{""address"": """", ""city"": """", ""state"": """", ""zip"": """"}', 'longitude': '-87.66411469955516'}",41,14917,29,63,46
4045 W 55th (Speed Camera),EB,,02/07/2014,41.79307966774864,-87.72495665631904,"{'latitude': '41.79307966774864', 'human_address': '{""address"": """", ""city"": """", ""state"": """", ""zip"": """"}', 'longitude': '-87.72495665631904'}",23,22248,60,773,15
1635 N Ashland (Speed Camera),NB,,03/03/2014,41.91168401599584,-87.66757342998466,"{'latitude': '41.91168401599584', 'human_address': '{""address"": """", ""city"": """", ""state"": """", ""zip"": """"}', 'longitude': '-87.66757342998466'}",24,21560,25,109,40
6330 S Martin Luther King Dr (Speed Camera),NB,SB,09/24/2014,41.779286,-87.616054,"{'latitude': '41.779286', 'human_address': '{""address"": """", ""city"": """", ""state"": """", ""zip"": """"}', 'longitude': '-87.616054'}",53,22260,67,122,4
3851 W 79th St (Speed Camera),WB,,02/10/2014,41.74937090787529,-87.71910467544157,"{'latitude': '41.74937090787529', 'human_address': '{""address"": """", ""city"": """", ""state"": """", ""zip"": """"}', 'longitude': '-87.71910467544157'}",6,4300,69,199,30
1110 S Pulaski Rd (Speed Camera),SB,,09/05/2014,41.86760272243294,-87.7253827433152,"{'latitude': '41.86760272243294', 'human_address': '{""address"": """", ""city"": """", ""state"": """", ""zip"": """"}', 'longitude': '-87.7253827433152'}",36,21572,30,98,14
450 N Columbus Dr (Speed Camera),SB,,05/18/2014,41.890122352505166,-87.62041639513696,"{'latitude': '41.890122352505166', 'human_address': '{""address"": """", ""city"": """", ""state"": """", ""zip"": """"}', 'longitude': '-87.62041639513696'}",22,21182,37,159,36
8043 W Addison St (Speed Camera),,EB,07/16/2018,41.944928,-87.827727,"{'latitude': '41.944928', 'human_address': '{""address"": """", ""city"": """", ""state"": """", ""zip"": """"}', 'longitude': '-87.827727'}",39,22254,17,413,19
6514 W Belmont (Speed Camera),WB,,03/10/2014,41.93837715933998,-87.78911871294291,"{'latitude': '41.93837715933998', 'human_address': '{""address"": """", ""city"": """", ""state"": """", ""zip"": """"}', 'longitude': '-87.78911871294291'}",39,22254,17,396,44
57 E 95th St (Speed Camera),WB,,10/12/2013,41.72165713317433,-87.62146289865515,"{'latitude': '41.72165713317433', 'human_address': '{""address"": """", ""city"": """", ""state"": """", ""zip"": """"}', 'longitude': '-87.62146289865515'}",31,21546,45,567,43
2448 N Clybourn Ave (Speed Camera),NB,SB,03/28/2014,41.926153342916486,-87.67093808722792,"{'latitude': '41.926153342916486', 'human_address': '{""address"": """", ""city"": """", ""state"": """", ""zip"": """"}', 'longitude': '-87.67093808722792'}",16,21190,68,743,40
3115 N Narragansett (Speed Camera),NB,,03/10/2014,41.93695084197675,-87.78574089058974,"{'latitude': '41.93695084197675', 'human_address': '{""address"": """", ""city"": """", ""state"": """", ""zip"": """"}', 'longitude': '-87.78574089058974'}",39,22254,19,81,44
4707 W Peterson Ave (Speed Camera),WB,,03/17/2014,41.98980766908236,-87.74622580384673,"{'latitude': '41.98980766908236', 'human_address': '{""address"": """", ""city"": """", ""state"": """", ""zip"": """"}', 'longitude': '-87.74622580384673'}",28,22532,12,713,38
6909 S Kedzie Ave (Speed Camera),NB,,09/06/2013,41.76773186901884,-87.70273790708362,"{'latitude': '41.76773186901884', 'human_address': '{""address"": """", ""city"": """", ""state"": """", ""zip"": """"}', 'longitude': '-87.70273790708362'}",6,21867,64,383,31
4909 N Cicero Ave (Speed Camera),SB,NB,09/18/2014,41.970134735816295,-87.7477237971432,"{'latitude': '41.970134735816295', 'human_address': '{""address"": """", ""city"": """", ""state"": """", ""zip"": """"}', 'longitude': '-87.7477237971432'}",28,21869,14,751,38
3521 N Western (Speed Camera),NB,,01/31/2014,41.945574090874274,-87.68807785258112,"{'latitude': '41.945574090874274', 'human_address': '{""address"": """", ""city"": """", ""state"": """", ""zip"": """"}', 'longitude': '-87.68807785258112'}",13,21538,46,646,18
2603 W 79th (Speed Camera),EB,,01/08/2014,41.74985294026319,-87.68798347502599,"{'latitude': '41.74985294026319', 'human_address': '{""address"": """", ""city"": """", ""state"": """", ""zip"": """"}', 'longitude': '-87.68798347502599'}",6,4300,69,243,30
3137 W Peterson (Speed Camera),EB,WB,01/03/2014,41.9902819135942,-87.70824462568225,"{'latitude': '41.9902819135942', 'human_address': '{""address"": """", ""city"": """", ""state"": """", ""zip"": """"}', 'longitude': '-87.70824462568225'}",46,4450,20,65,24
1440 W Cermak Rd (Speed Camera),WB,EB,09/02/2014,41.85250180995818,-87.66281031843234,"{'latitude': '41.85250180995818', 'human_address': '{""address"": """", ""city"": """", ""state"": """", ""zip"": """"}', 'longitude': '-87.66281031843234'}",8,14920,33,365,26
5446 W Fullerton (Speed Camera),WB,,12/12/2013,41.92412849125162,-87.76299399881007,"{'latitude': '41.92412849125162', 'human_address': '{""address"": """", ""city"": """", ""state"": """", ""zip"": """"}', 'longitude': '-87.76299399881007'}",27,22615,19,80,21
4319 W 47th St(Speed Camera),EB,,08/27/2018,41.807645,-87.731753,"{'latitude': '41.807645', 'human_address': '{""address"": """", ""city"": """", ""state"": """", ""zip"": """"}', 'longitude': '-87.731753'}",35,22248,54,697,8
515 S Central Ave (Speed Camera),NB,,04/14/2014,41.873329240103914,-87.76446041521123,"{'latitude': '41.873329240103914', 'human_address': '{""address"": """", ""city"": """", ""state"": """", ""zip"": """"}', 'longitude': '-87.76446041521123'}",52,22216,26,68,7
3535 E 95th St (Speed Camera),EB,,06/30/2014,41.722818322421595,-87.53756746533104,"{'latitude': '41.722818322421595', 'human_address': '{""address"": """", ""city"": """", ""state"": """", ""zip"": """"}', 'longitude': '-87.53756746533104'}",47,21202,49,528,47
341 W 76th St (Speed Camera),EB,,04/30/2014,41.756158269344546,-87.6335862634599,"{'latitude': '41.756158269344546', 'human_address': '{""address"": """", ""city"": """", ""state"": """", ""zip"": """"}', 'longitude': '-87.6335862634599'}",17,21554,67,495,31
4042 W North Ave (Speed Camera),WB,,11/09/2015,41.90997242450237,-87.72805040969816,"{'latitude': '41.90997242450237', 'human_address': '{""address"": """", ""city"": """", ""state"": """", ""zip"": """"}', 'longitude': '-87.72805040969816'}",27,22615,24,285,49
1117 S Pulaski Rd (Speed Camera),NB,,09/05/2014,41.867401834997956,-87.72508368792016,"{'latitude': '41.867401834997956', 'human_address': '{""address"": """", ""city"": """", ""state"": """", ""zip"": """"}', 'longitude': '-87.72508368792016'}",36,21572,30,98,14
5529 S Western (Speed Camera),SB,,11/23/2013,41.79252199331773,-87.68385704739886,"{'latitude': '41.79252199331773', 'human_address': '{""address"": """", ""city"": """", ""state"": """", ""zip"": """"}', 'longitude': '-87.68385704739886'}",19,22257,61,112,3
6523 N Western (Speed Camera),NB,SB,11/10/2013,42.00025951144952,-87.68980290863908,"{'latitude': '42.00025951144952', 'human_address': '{""address"": """", ""city"": """", ""state"": """", ""zip"": """"}', 'longitude': '-87.68980290863908'}",42,22528,20,320,27
4040 W 55th (Speed Camera),WB,,02/07/2014,41.79330051203649,-87.72479036232271,"{'latitude': '41.79330051203649', 'human_address': '{""address"": """", ""city"": """", ""state"": """", ""zip"": """"}', 'longitude': '-87.72479036232271'}",35,22248,60,793,6
14 W Chicago Ave (Speed Camera),EB,,04/29/2014,41.89677912747405,-87.6287812485988,"{'latitude': '41.89677912747405', 'human_address': '{""address"": """", ""city"": """", ""state"": """", ""zip"": """"}', 'longitude': '-87.6287812485988'}",22,4446,37,230,11
1901 E 75th St (Speed Camera),EB,WB,04/30/2014,41.758740770124234,-87.57851859043261,"{'latitude': '41.758740770124234', 'human_address': '{""address"": """", ""city"": """", ""state"": """", ""zip"": """"}', 'longitude': '-87.57851859043261'}",9,22538,39,188,35
2712 W Irving Park  (Speed Camera),WB,,11/15/2013,41.954092657149786,-87.6965965016668,"{'latitude': '41.954092657149786', 'human_address': '{""address"": """", ""city"": """", ""state"": """", ""zip"": """"}', 'longitude': '-87.6965965016668'}",2,21538,16,116,20
2080 W Pershing Rd (Speed Camera),EB,WB,09/07/2013,41.82300132296577,-87.67514359128938,"{'latitude': '41.82300132296577', 'human_address': '{""address"": """", ""city"": """", ""state"": """", ""zip"": """"}', 'longitude': '-87.67514359128938'}",29,14924,59,706,1
5120 N Pulaski Rd (Speed Camera),NB,SB,08/26/2013,41.97433265461055,-87.728215,"{'latitude': '41.97433265461055', 'human_address': '{""address"": """", ""city"": """", ""state"": """", ""zip"": """"}', 'longitude': '-87.728215'}",28,21869,13,748,38
6510 W Bryn Mawr Ave (Speed Camera),WB,,09/05/2014,41.98299452666102,-87.79083208818419,"{'latitude': '41.98299452666102', 'human_address': '{""address"": """", ""city"": """", ""state"": """", ""zip"": """"}', 'longitude': '-87.79083208818419'}",34,22243,36,733,29
5420 S Racine (Speed Camera),NB,SB,03/10/2014,41.795332774848234,-87.65504097855228,"{'latitude': '41.795332774848234', 'human_address': '{""address"": """", ""city"": """", ""state"": """", ""zip"": """"}', 'longitude': '-87.65504097855228'}",19,14924,59,790,4
7422 S Jeffery (Speed Camera),SB,NB,01/25/2014,41.759441472271405,-87.57630061252594,"{'latitude': '41.759441472271405', 'human_address': '{""address"": """", ""city"": """", ""state"": """", ""zip"": """"}', 'longitude': '-87.57630061252594'}",9,22538,39,419,35
3646 W Madison St (Speed Camera),EB,WB,09/10/2013,41.88093818643283,-87.71789844857646,"{'latitude': '41.88093818643283', 'human_address': '{""address"": """", ""city"": """", ""state"": """", ""zip"": """"}', 'longitude': '-87.71789844857646'}",11,21572,28,704,23
1507 W 83rd St (Speed Camera),EB,WB,10/11/2014,41.742993034938884,-87.66113775973551,"{'latitude': '41.742993034938884', 'human_address': '{""address"": """", ""city"": """", ""state"": """", ""zip"": """"}', 'longitude': '-87.66113775973551'}",18,21554,70,531,13
2513 W 55th St (Speed Camera),EB,WB,01/18/2014,41.79370224937009,-87.68724427195639,"{'latitude': '41.79370224937009', 'human_address': '{""address"": """", ""city"": """", ""state"": """", ""zip"": """"}', 'longitude': '-87.68724427195639'}",19,22248,61,112,3
2115 S Western Ave (Speed Camera),NB,,04/25/2014,41.85338493884992,-87.68552968203949,"{'latitude': '41.85338493884992', 'human_address': '{""address"": """", ""city"": """", ""state"": """", ""zip"": """"}', 'longitude': '-87.68552968203949'}",8,14920,33,4,26
10318 S Indianapolis (Speed Camera),NB,SB,12/24/2013,41.70757690291348,-87.52984826112849,"{'latitude': '41.70757690291348', 'human_address': '{""address"": """", ""city"": """", ""state"": """", ""zip"": """"}', 'longitude': '-87.52984826112849'}",47,21202,49,705,47
7826 S Pulaski Rd (Speed Camera),SB,,02/14/2014,41.75054619772355,-87.72209265589272,"{'latitude': '41.75054619772355', 'human_address': '{""address"": """", ""city"": """", ""state"": """", ""zip"": """"}', 'longitude': '-87.72209265589272'}",23,4300,69,571,30
324 S Kedzie Ave (Speed Camera),NB,SB,03/17/2014,41.87659894232968,-87.70614267856668,"{'latitude': '41.87659894232968', 'human_address': '{""address"": """", ""city"": """", ""state"": """", ""zip"": """"}', 'longitude': '-87.70614267856668'}",11,21572,28,765,23
2109 E 87th St (Speed Camera),EB,WB,09/18/2014,41.7369870911534,-87.57290117806258,"{'latitude': '41.7369870911534', 'human_address': '{""address"": """", ""city"": """", ""state"": """", ""zip"": """"}', 'longitude': '-87.57290117806258'}",9,21202,44,473,35
3116 N Narragansett (Speed Camera),SB,,03/10/2014,41.93700435024341,-87.78603672187927,"{'latitude': '41.93700435024341', 'human_address': '{""address"": """", ""city"": """", ""state"": """", ""zip"": """"}', 'longitude': '-87.78603672187927'}",39,22254,19,137,44
629 State St (Speed Camera),NB,,11/25/2013,41.873849598744286,-87.62744787497319,"{'latitude': '41.873849598744286', 'human_address': '{""address"": """", ""city"": """", ""state"": """", ""zip"": """"}', 'longitude': '-87.62744787497319'}",48,14913,38,368,10
1229 Western (Speed Camera),NB,,02/24/2014,41.90387807933294,-87.68690274176198,"{'latitude': '41.90387807933294', 'human_address': '{""address"": """", ""city"": """", ""state"": """", ""zip"": """"}', 'longitude': '-87.68690274176198'}",24,21560,25,516,41
140 N Ashland (Speed Camera),SB,,02/07/2014,41.88451419700416,-87.66704209415728,"{'latitude': '41.88451419700416', 'human_address': '{""address"": """", ""city"": """", ""state"": """", ""zip"": """"}', 'longitude': '-87.66704209415728'}",41,21184,29,579,46
3100 W Augusta Blvd (Speed Camera),EB,WB,10/17/2013,41.89932514072566,-87.70452234551168,"{'latitude': '41.89932514072566', 'human_address': '{""address"": """", ""city"": """", ""state"": """", ""zip"": """"}', 'longitude': '-87.70452234551168'}",10,21560,25,301,49
445 W 127th St (Speed Camera),EB,WB,10/17/2013,41.66317117223548,-87.63373364696125,"{'latitude': '41.66317117223548', 'human_address': '{""address"": """", ""city"": """", ""state"": """", ""zip"": """"}', 'longitude': '-87.63373364696125'}",30,21861,50,7,43
506 S Central Ave (Speed Camera),SB,,04/14/2014,41.87358141810132,-87.7647619684764,"{'latitude': '41.87358141810132', 'human_address': '{""address"": """", ""city"": """", ""state"": """", ""zip"": """"}', 'longitude': '-87.7647619684764'}",52,22216,26,67,7
6818 S Kedzie Ave (Speed Camera),SB,,09/06/2013,41.769106296454154,-87.70305895795853,"{'latitude': '41.769106296454154', 'human_address': '{""address"": """", ""city"": """", ""state"": """", ""zip"": """"}', 'longitude': '-87.70305895795853'}",6,21867,64,383,31
2445 W 51st St (Speed Camera),EB,,02/24/2014,41.801012880525555,-87.68607060493738,"{'latitude': '41.801012880525555', 'human_address': '{""address"": """", ""city"": """", ""state"": """", ""zip"": """"}', 'longitude': '-87.68607060493738'}",49,22248,61,778,8
819 E 71st St (Speed Camera),EB,WB,08/20/2018,41.765836,-87.605866,"{'latitude': '41.765836', 'human_address': '{""address"": """", ""city"": """", ""state"": """", ""zip"": """"}', 'longitude': '-87.605866'}",32,21546,67,515,33
5532 S Kedzie Ave (Speed Camera),SB,NB,01/07/2015,41.79251999694851,-87.70367640326066,"{'latitude': '41.79251999694851', 'human_address': '{""address"": """", ""city"": """", ""state"": """", ""zip"": """"}', 'longitude': '-87.70367640326066'}",49,21867,61,801,8
6226 W Irving Park Rd (Speed Camera),EB,WB,04/26/2014,41.95307482555687,-87.78282553773761,"{'latitude': '41.95307482555687', 'human_address': '{""address"": """", ""city"": """", ""state"": """", ""zip"": """"}', 'longitude': '-87.78282553773761'}",25,22254,15,131,19
2326 W Cermak (Speed Camera),WB,,03/03/2014,41.85215350507168,-87.68433838912533,"{'latitude': '41.85215350507168', 'human_address': '{""address"": """", ""city"": """", ""state"": """", ""zip"": """"}', 'longitude': '-87.68433838912533'}",8,14920,33,4,26
5025 S Western (Speed Camera),NB,SB,02/25/2014,41.802174029934044,-87.68410655772436,"{'latitude': '41.802174029934044', 'human_address': '{""address"": """", ""city"": """", ""state"": """", ""zip"": """"}', 'longitude': '-87.68410655772436'}",19,14924,61,775,3
346 W 76th St (Speed Camera),WB,,04/30/2014,41.7563743554102,-87.6338165847716,"{'latitude': '41.7563743554102', 'human_address': '{""address"": """", ""city"": """", ""state"": """", ""zip"": """"}', 'longitude': '-87.6338165847716'}",17,21554,67,495,32
4620 W Belmont (Speed Camera),EB,WB,03/10/2014,41.938988390759555,-87.74312142256439,"{'latitude': '41.938988390759555', 'human_address': '{""address"": """", ""city"": """", ""state"": """", ""zip"": """"}', 'longitude': '-87.74312142256439'}",27,22618,15,115,21
3450 W 71ST ST (Speed Camera),EB,WB,09/06/2013,41.76439095689881,-87.70972841983624,"{'latitude': '41.76439095689881', 'human_address': '{""address"": """", ""city"": """", ""state"": """", ""zip"": """"}', 'longitude': '-87.70972841983624'}",6,21867,64,383,31
2432 N Ashland (Speed Camera),NB,,01/25/2014,41.92620790295943,-87.66832897708693,"{'latitude': '41.92620790295943', 'human_address': '{""address"": """", ""city"": """", ""state"": """", ""zip"": """"}', 'longitude': '-87.66832897708693'}",16,21190,68,743,40
4831 W Lawrence Ave (Speed Camera),EB,WB,10/11/2014,41.96790232791309,-87.74907897663441,"{'latitude': '41.96790232791309', 'human_address': '{""address"": """", ""city"": """", ""state"": """", ""zip"": """"}', 'longitude': '-87.74907897663441'}",20,21869,15,259,50
11144 S Vincennes (Speed Camera),NB,,01/08/2014,41.69102545584918,-87.6642476900556,"{'latitude': '41.69102545584918', 'human_address': '{""address"": """", ""city"": """", ""state"": """", ""zip"": """"}', 'longitude': '-87.6642476900556'}",33,22212,74,378,42
11153 S Vincennes (Speed Camera),SB,,01/08/2014,41.690701951255015,-87.66412238501842,"{'latitude': '41.690701951255015', 'human_address': '{""address"": """", ""city"": """", ""state"": """", ""zip"": """"}', 'longitude': '-87.66412238501842'}",45,22212,74,378,22
4040 W Chicago Ave (Speed Camera),WB,,03/24/2014,41.895448620893006,-87.72765847088665,"{'latitude': '41.895448620893006', 'human_address': '{""address"": """", ""city"": """", ""state"": """", ""zip"": """"}', 'longitude': '-87.72765847088665'}",4,4299,24,99,45
1142 W Irving Park (Speed Camera),EB,WB,12/06/2013,41.95454086624301,-87.65857252142276,"{'latitude': '41.95454086624301', 'human_address': '{""address"": """", ""city"": """", ""state"": """", ""zip"": """"}', 'longitude': '-87.65857252142276'}",37,21186,31,241,39
3542 E 95th St (Speed Camera),WB,,06/30/2014,41.72304461975978,-87.5370407583455,"{'latitude': '41.72304461975978', 'human_address': '{""address"": """", ""city"": """", ""state"": """", ""zip"": """"}', 'longitude': '-87.5370407583455'}",47,21202,49,705,47
3217 W 55th St (Speed Camera),EB,,01/07/2015,41.79339237207923,-87.70434842139014,"{'latitude': '41.79339237207923', 'human_address': '{""address"": """", ""city"": """", ""state"": """", ""zip"": """"}', 'longitude': '-87.70434842139014'}",49,22248,61,801,8
4674 W Peterson Ave (Speed Camera),EB,,03/17/2014,41.99004267366519,-87.7453343185986,"{'latitude': '41.99004267366519', 'human_address': '{""address"": """", ""city"": """", ""state"": """", ""zip"": """"}', 'longitude': '-87.7453343185986'}",28,22532,12,713,38
1226 Western (Speed Camera),SB,,02/24/2014,41.90381710275111,-87.6871949977686,"{'latitude': '41.90381710275111', 'human_address': '{""address"": """", ""city"": """", ""state"": """", ""zip"": """"}', 'longitude': '-87.6871949977686'}",10,21560,25,302,49
2549 W Addison (Speed Camera),EB,WB,01/31/2014,41.94661819673533,-87.69054929251513,"{'latitude': '41.94661819673533', 'human_address': '{""address"": """", ""city"": """", ""state"": """", ""zip"": """"}', 'longitude': '-87.69054929251513'}",13,21538,46,110,18
6250 W Fullerton (Speed Camera),WB,,12/21/2013,41.92383169923362,-87.78264224184598,"{'latitude': '41.92383169923362', 'human_address': '{""address"": """", ""city"": """", ""state"": """", ""zip"": """"}', 'longitude': '-87.78264224184598'}",52,22615,19,78,21
2705 W Irving Park (Speed Camera),EB,,11/15/2013,41.95387526461699,-87.69620408862693,"{'latitude': '41.95387526461699', 'human_address': '{""address"": """", ""city"": """", ""state"": """", ""zip"": """"}', 'longitude': '-87.69620408862693'}",2,21538,16,372,20
4843 W Fullerton (Speed Camera),EB,WB,01/13/2014,41.92410632982652,-87.74802266359677,"{'latitude': '41.92410632982652', 'human_address': '{""address"": """", ""city"": """", ""state"": """", ""zip"": """"}', 'longitude': '-87.74802266359677'}",7,22615,19,306,17
3200 S Archer Ave (Speed Camera),WB,EB,11/09/2015,41.83595801848586,-87.66879026653764,"{'latitude': '41.83595801848586', 'human_address': '{""address"": """", ""city"": """", ""state"": """", ""zip"": """"}', 'longitude': '-87.66879026653764'}",26,14920,56,192,26
2928 S Halsted (Speed Camera),NB,SB,01/18/2014,41.84081262592384,-87.64649261049526,"{'latitude': '41.84081262592384', 'human_address': '{""address"": """", ""city"": """", ""state"": """", ""zip"": """"}', 'longitude': '-87.64649261049526'}",26,14920,58,59,48
2108 S Western Ave (Speed Camera),SB,,04/25/2014,41.853572622430164,-87.6858278546488,"{'latitude': '41.853572622430164', 'human_address': '{""address"": """", ""city"": """", ""state"": """", ""zip"": """"}', 'longitude': '-87.6858278546488'}",8,14920,33,4,23
2912 W Roosevelt Rd (Speed Camera),WB,,10/05/2013,41.86658528313424,-87.69896237494204,"{'latitude': '41.86658528313424', 'human_address': '{""address"": """", ""city"": """", ""state"": """", ""zip"": """"}', 'longitude': '-87.69896237494204'}",11,21184,30,35,23
3843 S Western Blvd (Speed Camera),NB,SB,09/07/2013,41.82353114733556,-87.6841140261617,"{'latitude': '41.82353114733556', 'human_address': '{""address"": """", ""city"": """", ""state"": """", ""zip"": """"}', 'longitude': '-87.6841140261617'}",26,14924,56,719,1
4041 W Chicago Ave (Speed Camera),EB,,03/24/2014,41.89522798956752,-87.72771533433409,"{'latitude': '41.89522798956752', 'human_address': '{""address"": """", ""city"": """", ""state"": """", ""zip"": """"}', 'longitude': '-87.72771533433409'}",11,21572,24,99,45
4246 W 47th St(Speed Camera),WB,,08/27/2018,41.807853,-87.730128,"{'latitude': '41.807853', 'human_address': '{""address"": """", ""city"": """", ""state"": """", ""zip"": """"}', 'longitude': '-87.730128'}",49,22248,54,591,8
4925 S Archer (Speed Camera),NEB,SWB,01/31/2014,41.80365647472294,-87.72101713004055,"{'latitude': '41.80365647472294', 'human_address': '{""address"": """", ""city"": """", ""state"": """", ""zip"": """"}', 'longitude': '-87.72101713004055'}",49,22248,54,698,8
5885 N Ridge Ave (Speed Camera),NB,SB,03/18/2014,41.988904472466494,-87.66845572473223,"{'latitude': '41.988904472466494', 'human_address': '{""address"": """", ""city"": """", ""state"": """", ""zip"": """"}', 'longitude': '-87.66845572473223'}",40,4451,76,539,16
4124 W Foster Ave (Speed Camera),EB,WB,08/26/2013,41.975501,-87.73166979484374,"{'latitude': '41.975501', 'human_address': '{""address"": """", ""city"": """", ""state"": """", ""zip"": """"}', 'longitude': '-87.73166979484374'}",28,21869,13,748,38
1111 N Humboldt Blvd (Speed Camera),SB,NB,11/19/2013,41.901430911774796,-87.70212117023745,"{'latitude': '41.901430911774796', 'human_address': '{""address"": """", ""city"": """", ""state"": """", ""zip"": """"}', 'longitude': '-87.70212117023745'}",10,21560,25,301,49
1444 W Division St(Speed Camera),WB,,09/05/2018,41.903482,-87.664378,"{'latitude': '41.903482', 'human_address': '{""address"": """", ""city"": """", ""state"": """", ""zip"": """"}', 'longitude': '-87.664378'}",24,22620,25,483,11
5006 S Western Blvd (Speed Camera),NB,SB,01/08/2018,41.802794,-87.683753,"{'latitude': '41.802794', 'human_address': '{""address"": """", ""city"": """", ""state"": """", ""zip"": """"}', 'longitude': '-87.683753'}",19,14924,61,775,3
4123 N Central Ave (Speed Camera),NB,SB,03/31/2014,41.954128259602165,-87.76688350223966,"{'latitude': '41.954128259602165', 'human_address': '{""address"": """", ""city"": """", ""state"": """", ""zip"": """"}', 'longitude': '-87.76688350223966'}",25,22618,15,260,19
1315 W Garfield Blvd (Speed Camera),EB,,03/24/2014,41.793645091444645,-87.6578607639445,"{'latitude': '41.793645091444645', 'human_address': '{""address"": """", ""city"": """", ""state"": """", ""zip"": """"}', 'longitude': '-87.6578607639445'}",19,22257,65,297,2
7833 S Pulaski Rd (Speed Camera),NB,,02/14/2014,41.75038452958284,-87.72179453872008,"{'latitude': '41.75038452958284', 'human_address': '{""address"": """", ""city"": """", ""state"": """", ""zip"": """"}', 'longitude': '-87.72179453872008'}",6,4300,69,571,30
6247 W Fullerton (Speed Camera),EB,,12/21/2013,41.9236145831186,-87.78247948955652,"{'latitude': '41.9236145831186', 'human_address': '{""address"": """", ""city"": """", ""state"": """", ""zip"": """"}', 'longitude': '-87.78247948955652'}",52,22615,19,77,44
5520 S Western (Speed Camera),NB,,11/23/2013,41.792761119965434,-87.68415735542791,"{'latitude': '41.792761119965434', 'human_address': '{""address"": """", ""city"": """", ""state"": """", ""zip"": """"}', 'longitude': '-87.68415735542791'}",19,22257,61,112,3
4053 W North Ave (Speed Camera),EB,,11/09/2015,41.90974567444195,-87.72856329512945,"{'latitude': '41.90974567444195', 'human_address': '{""address"": """", ""city"": """", ""state"": """", ""zip"": """"}', 'longitude': '-87.72856329512945'}",27,22615,24,286,49
8020 W Forest Preserve Ave (Speed Camera),EB,WB,07/16/2018,41.944352,-87.827241,"{'latitude': '41.944352', 'human_address': '{""address"": """", ""city"": """", ""state"": """", ""zip"": """"}', 'longitude': '-87.827241'}",39,22254,17,413,19
9618 S Ewing Ave (Speed Camera),NB,SB,05/31/2014,41.72075680558273,-87.53543678735923,"{'latitude': '41.72075680558273', 'human_address': '{""address"": """", ""city"": """", ""state"": """", ""zip"": """"}', 'longitude': '-87.53543678735923'}",47,21202,49,528,47
8006 W Addison St (Speed Camera),WB,,07/16/2018,41.945054,-87.827043,"{'latitude': '41.945054', 'human_address': '{""address"": """", ""city"": """", ""state"": """", ""zip"": """"}', 'longitude': '-87.827043'}",39,22254,17,445,19
62 E 95th St (Speed Camera),EB,,10/12/2013,41.72187849819265,-87.62135432849777,"{'latitude': '41.72187849819265', 'human_address': '{""address"": """", ""city"": """", ""state"": """", ""zip"": """"}', 'longitude': '-87.62135432849777'}",31,21546,45,554,43
3111 N Ashland Ave (Speed Camera),NB,,09/26/2014,41.938253305553516,-87.66846320182256,"{'latitude': '41.938253305553516', 'human_address': '{""address"": """", ""city"": """", ""state"": """", ""zip"": """"}', 'longitude': '-87.66846320182256'}",16,4449,57,712,40
4432 N Lincoln (Speed Camera),NB,SB,01/04/2014,41.96226556022151,-87.68456699562915,"{'latitude': '41.96226556022151', 'human_address': '{""address"": """", ""city"": """", ""state"": """", ""zip"": """"}', 'longitude': '-87.68456699562915'}",13,21849,6,667,18
2416 W 103rd St (Speed Camera),WB,,10/17/2014,41.70648720051648,-87.68239105927896,"{'latitude': '41.70648720051648', 'human_address': '{""address"": """", ""city"": """", ""state"": """", ""zip"": """"}', 'longitude': '-87.68239105927896'}",33,4447,71,661,42
3212 W 55th St (Speed Camera),WB,,01/07/2015,41.793614646148406,-87.7041703550325,"{'latitude': '41.793614646148406', 'human_address': '{""address"": """", ""city"": """", ""state"": """", ""zip"": """"}', 'longitude': '-87.7041703550325'}",49,22248,61,776,8
141 N Ashland (Speed Camera),NB,,02/07/2014,41.88451740794813,-87.66674834697315,"{'latitude': '41.88451740794813', 'human_address': '{""address"": """", ""city"": """", ""state"": """", ""zip"": """"}', 'longitude': '-87.66674834697315'}",41,14917,29,63,46
1455 W Division St(Speed Camera),EB,,09/05/2018,41.90329,-87.664873,"{'latitude': '41.90329', 'human_address': '{""address"": """", ""city"": """", ""state"": """", ""zip"": """"}', 'longitude': '-87.664873'}",41,22620,25,484,46
630 State St (Speed Camera),SB,,11/25/2013,41.87382420497741,-87.62774075943143,"{'latitude': '41.87382420497741', 'human_address': '{""address"": """", ""city"": """", ""state"": """", ""zip"": """"}', 'longitude': '-87.62774075943143'}",48,14913,38,12,10
4446 N Broadway (Speed Camera),SB,,11/23/2013,41.96288063517309,-87.6560244499908,"{'latitude': '41.96288063517309', 'human_address': '{""address"": """", ""city"": """", ""state"": """", ""zip"": """"}', 'longitude': '-87.6560244499908'}",37,22616,31,241,39
3911 W Diversey Ave (Speed Camera),EB,WB,07/16/2018,41.931868,-87.724595,"{'latitude': '41.931868', 'human_address': '{""address"": """", ""city"": """", ""state"": """", ""zip"": """"}', 'longitude': '-87.724595'}",27,22535,22,71,21
5471 W Higgins (Speed Camera),EB,WB,02/14/2014,41.96924714863934,-87.76401945149458,"{'latitude': '41.96924714863934', 'human_address': '{""address"": """", ""city"": """", ""state"": """", ""zip"": """"}', 'longitude': '-87.76401945149458'}",20,21869,11,129,50
3810 W Belmont Ave (Speed Camera),WB,,04/08/2014,41.93925823071868,-87.72278142793657,"{'latitude': '41.93925823071868', 'human_address': '{""address"": """", ""city"": """", ""state"": """", ""zip"": """"}', 'longitude': '-87.72278142793657'}",27,21538,22,138,21
